CCSDS_OMM_VERS = 2.0
CREATION_DATE  = 
ORIGINATOR     = 

OBJECT_NAME    = CZ-3B R/B
OBJECT_ID      = 2025-312B
CENTER_NAME    = EARTH
REF_FRAME      = TEME
TIME_SYSTEM    = UTC
MEAN_ELEMENT_THEORY = SGP/SGP4

EPOCH          = 2026-01-14T22:29:09.686688
MEAN_MOTION    = 2.43934644
ECCENTRICITY   = .7206315
INCLINATION    = 28.3826
RA_OF_ASC_NODE = 326.6661
ARG_OF_PERICENTER = 191.5174
MEAN_ANOMALY   = 132.7342

EPHEMERIS_TYPE = 0
CLASSIFICATION_TYPE = U
NORAD_CAT_ID   = 67247
ELEMENT_SET_NO = 999
REV_AT_EPOCH   = 46
BSTAR          = .51133E-3
MEAN_MOTION_DOT = .167779E-2
MEAN_MOTION_DDOT = -.27852E-6

CCSDS_OMM_VERS = 2.0
CREATION_DATE  = 
ORIGINATOR     = 

OBJECT_NAME    = 2025-313A
OBJECT_ID      = 2025-313A
CENTER_NAME    = EARTH
REF_FRAME      = TEME
TIME_SYSTEM    = UTC
MEAN_ELEMENT_THEORY = SGP/SGP4

EPOCH          = 2026-01-15T19:44:32.640864
MEAN_MOTION    = 14.66795326
ECCENTRICITY   = .0280571
INCLINATION    = 97.5630
RA_OF_ASC_NODE = 91.9410
ARG_OF_PERICENTER = 106.1200
MEAN_ANOMALY   = 257.1084

EPHEMERIS_TYPE = 0
CLASSIFICATION_TYPE = U
NORAD_CAT_ID   = 67248
ELEMENT_SET_NO = 999
REV_AT_EPOCH   = 268
BSTAR          = .10279E-3
MEAN_MOTION_DOT = .981E-5
MEAN_MOTION_DDOT = 0

CCSDS_OMM_VERS = 2.0
CREATION_DATE  = 
ORIGINATOR     = 

OBJECT_NAME    = 2025-313B
OBJECT_ID      = 2025-313B
CENTER_NAME    = EARTH
REF_FRAME      = TEME
TIME_SYSTEM    = UTC
MEAN_ELEMENT_THEORY = SGP/SGP4

EPOCH          = 2026-01-15T19:30:21.949056
MEAN_MOTION    = 14.73197310
ECCENTRICITY   = .0297787
INCLINATION    = 97.5322
RA_OF_ASC_NODE = 92.0220
ARG_OF_PERICENTER = 110.3418
MEAN_ANOMALY   = 253.0052

EPHEMERIS_TYPE = 0
CLASSIFICATION_TYPE = U
NORAD_CAT_ID   = 67249
ELEMENT_SET_NO = 999
REV_AT_EPOCH   = 269
BSTAR          = .18432E-3
MEAN_MOTION_DOT = .2372E-4
MEAN_MOTION_DDOT = 0

CCSDS_OMM_VERS = 2.0
CREATION_DATE  = 
ORIGINATOR     = 

OBJECT_NAME    = 2025-313C
OBJECT_ID      = 2025-313C
CENTER_NAME    = EARTH
REF_FRAME      = TEME
TIME_SYSTEM    = UTC
MEAN_ELEMENT_THEORY = SGP/SGP4

EPOCH          = 2026-01-15T19:26:28.111776
MEAN_MOTION    = 14.84687226
ECCENTRICITY   = .0163006
INCLINATION    = 97.6365
RA_OF_ASC_NODE = 92.5740
ARG_OF_PERICENTER = 120.3766
MEAN_ANOMALY   = 241.3678

EPHEMERIS_TYPE = 0
CLASSIFICATION_TYPE = U
NORAD_CAT_ID   = 67250
ELEMENT_SET_NO = 999
REV_AT_EPOCH   = 271
BSTAR          = .89489E-3
MEAN_MOTION_DOT = .9565E-4
MEAN_MOTION_DDOT = 0

CCSDS_OMM_VERS = 2.0
CREATION_DATE  = 
ORIGINATOR     = 

OBJECT_NAME    = 2025-313D
OBJECT_ID      = 2025-313D
CENTER_NAME    = EARTH
REF_FRAME      = TEME
TIME_SYSTEM    = UTC
MEAN_ELEMENT_THEORY = SGP/SGP4

EPOCH          = 2026-01-15T19:47:25.486656
MEAN_MOTION    = 14.88743755
ECCENTRICITY   = .0152385
INCLINATION    = 97.5875
RA_OF_ASC_NODE = 92.5763
ARG_OF_PERICENTER = 112.9016
MEAN_ANOMALY   = 248.8369

EPHEMERIS_TYPE = 0
CLASSIFICATION_TYPE = U
NORAD_CAT_ID   = 67251
ELEMENT_SET_NO = 999
REV_AT_EPOCH   = 272
BSTAR          = .18196E-3
MEAN_MOTION_DOT = .2052E-4
MEAN_MOTION_DDOT = 0

CCSDS_OMM_VERS = 2.0
CREATION_DATE  = 
ORIGINATOR     = 

OBJECT_NAME    = ZORKIY-2M-VPE
OBJECT_ID      = 2025-313E
CENTER_NAME    = EARTH
REF_FRAME      = TEME
TIME_SYSTEM    = UTC
MEAN_ELEMENT_THEORY = SGP/SGP4

EPOCH          = 2026-01-15T19:53:09.009600
MEAN_MOTION    = 15.21650483
ECCENTRICITY   = .0011194
INCLINATION    = 97.4117
RA_OF_ASC_NODE = 93.0152
ARG_OF_PERICENTER = 154.2470
MEAN_ANOMALY   = 205.9325

EPHEMERIS_TYPE = 0
CLASSIFICATION_TYPE = U
NORAD_CAT_ID   = 67252
ELEMENT_SET_NO = 999
REV_AT_EPOCH   = 278
BSTAR          = .24426E-3
MEAN_MOTION_DOT = .546E-4
MEAN_MOTION_DDOT = 0

CCSDS_OMM_VERS = 2.0
CREATION_DATE  = 
ORIGINATOR     = 

OBJECT_NAME    = AIST-2T 1
OBJECT_ID      = 2025-313F
CENTER_NAME    = EARTH
REF_FRAME      = TEME
TIME_SYSTEM    = UTC
MEAN_ELEMENT_THEORY = SGP/SGP4

EPOCH          = 2026-01-15T18:42:49.137696
MEAN_MOTION    = 15.65157242
ECCENTRICITY   = .0010488
INCLINATION    = 97.1037
RA_OF_ASC_NODE = 93.1157
ARG_OF_PERICENTER = 172.4656
MEAN_ANOMALY   = 187.6764

EPHEMERIS_TYPE = 0
CLASSIFICATION_TYPE = U
NORAD_CAT_ID   = 67253
ELEMENT_SET_NO = 999
REV_AT_EPOCH   = 283
BSTAR          = .36724E-3
MEAN_MOTION_DOT = .36313E-3
MEAN_MOTION_DDOT = 0

CCSDS_OMM_VERS = 2.0
CREATION_DATE  = 
ORIGINATOR     = 

OBJECT_NAME    = AIST-2T 2
OBJECT_ID      = 2025-313G
CENTER_NAME    = EARTH
REF_FRAME      = TEME
TIME_SYSTEM    = UTC
MEAN_ELEMENT_THEORY = SGP/SGP4

EPOCH          = 2026-01-15T15:40:05.047680
MEAN_MOTION    = 15.64822233
ECCENTRICITY   = .001035
INCLINATION    = 97.1014
RA_OF_ASC_NODE = 92.9882
ARG_OF_PERICENTER = 178.1402
MEAN_ANOMALY   = 181.9898

EPHEMERIS_TYPE = 0
CLASSIFICATION_TYPE = U
NORAD_CAT_ID   = 67254
ELEMENT_SET_NO = 999
REV_AT_EPOCH   = 280
BSTAR          = .29732E-3
MEAN_MOTION_DOT = .28963E-3
MEAN_MOTION_DDOT = 0

CCSDS_OMM_VERS = 2.0
CREATION_DATE  = 
ORIGINATOR     = 

OBJECT_NAME    = 2025-313H
OBJECT_ID      = 2025-313H
CENTER_NAME    = EARTH
REF_FRAME      = TEME
TIME_SYSTEM    = UTC
MEAN_ELEMENT_THEORY = SGP/SGP4

EPOCH          = 2026-01-15T19:05:36.910176
MEAN_MOTION    = 15.02169170
ECCENTRICITY   = .009125
INCLINATION    = 97.3098
RA_OF_ASC_NODE = 92.2341
ARG_OF_PERICENTER = 133.3682
MEAN_ANOMALY   = 227.5192

EPHEMERIS_TYPE = 0
CLASSIFICATION_TYPE = U
NORAD_CAT_ID   = 67255
ELEMENT_SET_NO = 999
REV_AT_EPOCH   = 274
BSTAR          = .10061E-3
MEAN_MOTION_DOT = .1387E-4
MEAN_MOTION_DDOT = 0

CCSDS_OMM_VERS = 2.0
CREATION_DATE  = 
ORIGINATOR     = 

OBJECT_NAME    = SITRO-AIS-57
OBJECT_ID      = 2025-313J
CENTER_NAME    = EARTH
REF_FRAME      = TEME
TIME_SYSTEM    = UTC
MEAN_ELEMENT_THEORY = SGP/SGP4

EPOCH          = 2026-01-15T17:14:13.944480
MEAN_MOTION    = 15.19883235
ECCENTRICITY   = .0016986
INCLINATION    = 97.4109
RA_OF_ASC_NODE = 92.8528
ARG_OF_PERICENTER = 172.9982
MEAN_ANOMALY   = 187.1493

EPHEMERIS_TYPE = 0
CLASSIFICATION_TYPE = U
NORAD_CAT_ID   = 67256
ELEMENT_SET_NO = 999
REV_AT_EPOCH   = 276
BSTAR          = .26062E-3
MEAN_MOTION_DOT = .5547E-4
MEAN_MOTION_DDOT = 0

CCSDS_OMM_VERS = 2.0
CREATION_DATE  = 
ORIGINATOR     = 

OBJECT_NAME    = SITRO-AIS-59
OBJECT_ID      = 2025-313K
CENTER_NAME    = EARTH
REF_FRAME      = TEME
TIME_SYSTEM    = UTC
MEAN_ELEMENT_THEORY = SGP/SGP4

EPOCH          = 2026-01-15T18:48:25.522272
MEAN_MOTION    = 15.19909160
ECCENTRICITY   = .0016712
INCLINATION    = 97.4115
RA_OF_ASC_NODE = 92.9195
ARG_OF_PERICENTER = 174.8390
MEAN_ANOMALY   = 185.3021

EPHEMERIS_TYPE = 0
CLASSIFICATION_TYPE = U
NORAD_CAT_ID   = 67257
ELEMENT_SET_NO = 999
REV_AT_EPOCH   = 277
BSTAR          = .24738E-3
MEAN_MOTION_DOT = .5265E-4
MEAN_MOTION_DDOT = 0

CCSDS_OMM_VERS = 2.0
CREATION_DATE  = 
ORIGINATOR     = 

OBJECT_NAME    = SITRO-AIS-58
OBJECT_ID      = 2025-313L
CENTER_NAME    = EARTH
REF_FRAME      = TEME
TIME_SYSTEM    = UTC
MEAN_ELEMENT_THEORY = SGP/SGP4

EPOCH          = 2026-01-15T18:47:53.409120
MEAN_MOTION    = 15.19951839
ECCENTRICITY   = .0016666
INCLINATION    = 97.4111
RA_OF_ASC_NODE = 92.9184
ARG_OF_PERICENTER = 174.1238
MEAN_ANOMALY   = 186.0196

EPHEMERIS_TYPE = 0
CLASSIFICATION_TYPE = U
NORAD_CAT_ID   = 67258
ELEMENT_SET_NO = 999
REV_AT_EPOCH   = 277
BSTAR          = .25043E-3
MEAN_MOTION_DOT = .5337E-4
MEAN_MOTION_DDOT = 0

