CZ-3B R/B               
1 67247U 25312B   26014.93691767  .00167779 -27852-6  51133-3 0  9994
2 67247  28.3826 326.6661 7206315 191.5174 132.7342  2.43934644   460
2025-313A               
1 67248U 25313A   26015.82260001  .00000981  00000+0  10279-3 0  9993
2 67248  97.5630  91.9410 0280571 106.1200 257.1084 14.66795326  2688
2025-313B               
1 67249U 25313B   26015.81275404  .00002372  00000+0  18432-3 0  9991
2 67249  97.5322  92.0220 0297787 110.3418 253.0052 14.73197310  2691
2025-313C               
1 67250U 25313C   26015.81004759  .00009565  00000+0  89489-3 0  9997
2 67250  97.6365  92.5740 0163006 120.3766 241.3678 14.84687226  2715
2025-313D               
1 67251U 25313D   26015.82460054  .00002052  00000+0  18196-3 0  9994
2 67251  97.5875  92.5763 0152385 112.9016 248.8369 14.88743755  2723
ZORKIY-2M-VPE           
1 67252U 25313E   26015.82857650  .00005460  00000+0  24426-3 0  9996
2 67252  97.4117  93.0152 0011194 154.2470 205.9325 15.21650483  2780
AIST-2T 1               
1 67253U 25313F   26015.77973539  .00036313  00000+0  36724-3 0  9991
2 67253  97.1037  93.1157 0010488 172.4656 187.6764 15.65157242  2830
AIST-2T 2               
1 67254U 25313G   26015.65283620  .00028963  00000+0  29732-3 0  9997
2 67254  97.1014  92.9882 0010350 178.1402 181.9898 15.64822233  2808
2025-313H               
1 67255U 25313H   26015.79556609  .00001387  00000+0  10061-3 0  9999
2 67255  97.3098  92.2341 0091250 133.3682 227.5192 15.02169170  2740
SITRO-AIS-57            
1 67256U 25313J   26015.71821695  .00005547  00000+0  26062-3 0  9992
2 67256  97.4109  92.8528 0016986 172.9982 187.1493 15.19883235  2763
SITRO-AIS-59            
1 67257U 25313K   26015.78362873  .00005265  00000+0  24738-3 0  9993
2 67257  97.4115  92.9195 0016712 174.8390 185.3021 15.19909160  2777
SITRO-AIS-58            
1 67258U 25313L   26015.78325705  .00005337  00000+0  25043-3 0  9997
2 67258  97.4111  92.9184 0016666 174.1238 186.0196 15.19951839  2775
